[{"OBJECT_NAME":"OBJECT V","OBJECT_ID":"2023-085V","EPOCH":"2026-03-09T21:44:00.165408","MEAN_MOTION":15.30745852,"ECCENTRICITY":0.00069081,"INCLINATION":97.4843,"RA_OF_ASC_NODE":179.3833,"ARG_OF_PERICENTER":71.0503,"MEAN_ANOMALY":289.1485,"EPHEMERIS_TYPE":0,"CLASSIFICATION_TYPE":"U","NORAD_CAT_ID":57023,"ELEMENT_SET_NO":999,"REV_AT_EPOCH":15149,"BSTAR":0.00067780507,"MEAN_MOTION_DOT":0.00020109,"MEAN_MOTION_DDOT":0},{"OBJECT_NAME":"STARLINK-34240","OBJECT_ID":"2025-120K","EPOCH":"2026-03-09T12:15:33.545952","MEAN_MOTION":15.30192145,"ECCENTRICITY":0.00013494,"INCLINATION":53.1594,"RA_OF_ASC_NODE":117.8863,"ARG_OF_PERICENTER":70.2304,"MEAN_ANOMALY":289.8842,"EPHEMERIS_TYPE":0,"CLASSIFICATION_TYPE":"U","NORAD_CAT_ID":64265,"ELEMENT_SET_NO":999,"REV_AT_EPOCH":4388,"BSTAR":0.0010257868,"MEAN_MOTION_DOT":0.00030138,"MEAN_MOTION_DDOT":0}]
